{
  "type": "FeatureCollection",
  "features": [
    {
      "type": "Feature",
      "properties": {
        "norad_id": 30282,
        "name": "FENGYUN 1C DEB",
        "group": "fengyun-1c-debris",
        "lat": -0.3737371598604582,
        "lon": 165.37974291612386,
        "alt_km": 998.6500523413288,
        "timestamp": "2025-12-07T22:37:43.354984+00:00",
        "meta_object_name": "FENGYUN 1C DEB",
        "meta_object_id": "1999-025YT",
        "meta_epoch": "2025-12-07T06:35:35.464992",
        "meta_mean_motion": 14.12960092,
        "meta_eccentricity": 0.02106366,
        "meta_inclination": 98.5015,
        "meta_ra_of_asc_node": 344.8006,
        "meta_arg_of_pericenter": 17.7538,
        "meta_mean_anomaly": 5.1297,
        "meta_ephemeris_type": 0,
        "meta_classification_type": "U",
        "meta_norad_cat_id": 30282,
        "meta_element_set_no": 999,
        "meta_rev_at_epoch": 97274,
        "meta_bstar": 0.00060249286,
        "meta_mean_motion_dot": 1.344e-05,
        "meta_mean_motion_ddot": 0,
        "tle_line1": "1 30282U 99025YT  25341.27471603  .00001344  00000+0  60249-3 0  9990",
        "tle_line2": "2 30282  98.5015 344.8006 0210636  17.7538   5.1297 14.12960092972746"
      },
      "geometry": {
        "type": "Point",
        "coordinates": [
          165.37974291612386,
          -0.3737371598604582
        ]
      }
    },
    {
      "type": "Feature",
      "properties": {
        "norad_id": 30283,
        "name": "FENGYUN 1C DEB",
        "group": "fengyun-1c-debris",
        "lat": -61.20244659210136,
        "lon": -7.743799720355594,
        "alt_km": 957.4598696437588,
        "timestamp": "2025-12-07T22:37:43.354995+00:00",
        "meta_object_name": "FENGYUN 1C DEB",
        "meta_object_id": "1999-025YU",
        "meta_epoch": "2025-12-07T06:06:49.184352",
        "meta_mean_motion": 14.0197294,
        "meta_eccentricity": 0.01852273,
        "meta_inclination": 98.8672,
        "meta_ra_of_asc_node": 335.0884,
        "meta_arg_of_pericenter": 58.5014,
        "meta_mean_anomaly": 9.8029,
        "meta_ephemeris_type": 0,
        "meta_classification_type": "U",
        "meta_norad_cat_id": 30283,
        "meta_element_set_no": 999,
        "meta_rev_at_epoch": 96614,
        "meta_bstar": 0.00011738817,
        "meta_mean_motion_dot": 1.66e-06,
        "meta_mean_motion_ddot": 0,
        "tle_line1": "1 30283U 99025YU  25341.25473593  .00000166  00000+0  11739-3 0  9990",
        "tle_line2": "2 30283  98.8672 335.0884 0185227  58.5014   9.8029 14.01972940966148"
      },
      "geometry": {
        "type": "Point",
        "coordinates": [
          -7.743799720355594,
          -61.20244659210136
        ]
      }
    },
    {
      "type": "Feature",
      "properties": {
        "norad_id": 30284,
        "name": "FENGYUN 1C DEB",
        "group": "fengyun-1c-debris",
        "lat": 56.95982828102385,
        "lon": 36.73593510921892,
        "alt_km": 778.6845032304836,
        "timestamp": "2025-12-07T22:37:43.355006+00:00",
        "meta_object_name": "FENGYUN 1C DEB",
        "meta_object_id": "1999-025YV",
        "meta_epoch": "2025-12-06T16:48:45.073152",
        "meta_mean_motion": 14.28698372,
        "meta_eccentricity": 0.00380272,
        "meta_inclination": 98.7206,
        "meta_ra_of_asc_node": 49.1442,
        "meta_arg_of_pericenter": 126.1531,
        "meta_mean_anomaly": 26.1434,
        "meta_ephemeris_type": 0,
        "meta_classification_type": "U",
        "meta_norad_cat_id": 30284,
        "meta_element_set_no": 999,
        "meta_rev_at_epoch": 97429,
        "meta_bstar": 0.002640684,
        "meta_mean_motion_dot": 6.654e-05,
        "meta_mean_motion_ddot": 0,
        "tle_line1": "1 30284U 99025YV  25340.70052168  .00006654  00000+0  26407-2 0  9996",
        "tle_line2": "2 30284  98.7206  49.1442 0038027 126.1531  26.1434 14.28698372974295"
      },
      "geometry": {
        "type": "Point",
        "coordinates": [
          36.73593510921892,
          56.95982828102385
        ]
      }
    },
    {
      "type": "Feature",
      "properties": {
        "norad_id": 30286,
        "name": "FENGYUN 1C DEB",
        "group": "fengyun-1c-debris",
        "lat": 43.46142604534444,
        "lon": -21.885913584827808,
        "alt_km": 855.8694317267182,
        "timestamp": "2025-12-07T22:37:43.355016+00:00",
        "meta_object_name": "FENGYUN 1C DEB",
        "meta_object_id": "1999-025YX",
        "meta_epoch": "2025-12-07T07:11:50.884800",
        "meta_mean_motion": 14.12720555,
        "meta_eccentricity": 0.0064498,
        "meta_inclination": 98.69,
        "meta_ra_of_asc_node": 345.824,
        "meta_arg_of_pericenter": 148.0881,
        "meta_mean_anomaly": 228.6355,
        "meta_ephemeris_type": 0,
        "meta_classification_type": "U",
        "meta_norad_cat_id": 30286,
        "meta_element_set_no": 999,
        "meta_rev_at_epoch": 97382,
        "meta_bstar": 0.00015956089,
        "meta_mean_motion_dot": 2.6e-06,
        "meta_mean_motion_ddot": 0,
        "tle_line1": "1 30286U 99025YX  25341.29989450  .00000260  00000+0  15956-3 0  9991",
        "tle_line2": "2 30286  98.6900 345.8240 0064498 148.0881 228.6355 14.12720555973822"
      },
      "geometry": {
        "type": "Point",
        "coordinates": [
          -21.885913584827808,
          43.46142604534444
        ]
      }
    },
    {
      "type": "Feature",
      "properties": {
        "norad_id": 30287,
        "name": "FENGYUN 1C DEB",
        "group": "fengyun-1c-debris",
        "lat": -62.52215547932188,
        "lon": 33.63961471660781,
        "alt_km": 993.026975210917,
        "timestamp": "2025-12-07T22:37:43.355027+00:00",
        "meta_object_name": "FENGYUN 1C DEB",
        "meta_object_id": "1999-025YY",
        "meta_epoch": "2025-12-07T00:25:22.452672",
        "meta_mean_motion": 13.68564225,
        "meta_eccentricity": 0.04136423,
        "meta_inclination": 98.6379,
        "meta_ra_of_asc_node": 15.814,
        "meta_arg_of_pericenter": 27.5317,
        "meta_mean_anomaly": 37.3829,
        "meta_ephemeris_type": 0,
        "meta_classification_type": "U",
        "meta_norad_cat_id": 30287,
        "meta_element_set_no": 999,
        "meta_rev_at_epoch": 93780,
        "meta_bstar": 0.0016463268,
        "meta_mean_motion_dot": 2.535e-05,
        "meta_mean_motion_ddot": 0,
        "tle_line1": "1 30287U 99025YY  25341.01762098  .00002535  00000+0  16463-2 0  9999",
        "tle_line2": "2 30287  98.6379  15.8140 0413642  27.5317  37.3829 13.68564225937809"
      },
      "geometry": {
        "type": "Point",
        "coordinates": [
          33.63961471660781,
          -62.52215547932188
        ]
      }
    },
    {
      "type": "Feature",
      "properties": {
        "norad_id": 30288,
        "name": "FENGYUN 1C DEB",
        "group": "fengyun-1c-debris",
        "lat": -16.938125340306986,
        "lon": -119.69634549550844,
        "alt_km": 799.2163296562139,
        "timestamp": "2025-12-07T22:37:43.355038+00:00",
        "meta_object_name": "FENGYUN 1C DEB",
        "meta_object_id": "1999-025YZ",
        "meta_epoch": "2025-12-06T19:27:31.459392",
        "meta_mean_motion": 14.32499958,
        "meta_eccentricity": 0.0020242,
        "meta_inclination": 99.3957,
        "meta_ra_of_asc_node": 61.9683,
        "meta_arg_of_pericenter": 340.1343,
        "meta_mean_anomaly": 142.1483,
        "meta_ephemeris_type": 0,
        "meta_classification_type": "U",
        "meta_norad_cat_id": 30288,
        "meta_element_set_no": 999,
        "meta_rev_at_epoch": 97484,
        "meta_bstar": 0.0030481501,
        "meta_mean_motion_dot": 8.238e-05,
        "meta_mean_motion_ddot": 0,
        "tle_line1": "1 30288U 99025YZ  25340.81078078  .00008238  00000+0  30482-2 0  9998",
        "tle_line2": "2 30288  99.3957  61.9683 0020242 340.1343 142.1483 14.32499958974845"
      },
      "geometry": {
        "type": "Point",
        "coordinates": [
          -119.69634549550844,
          -16.938125340306986
        ]
      }
    },
    {
      "type": "Feature",
      "properties": {
        "norad_id": 30289,
        "name": "FENGYUN 1C DEB",
        "group": "fengyun-1c-debris",
        "lat": 79.39018790367712,
        "lon": 21.296596738581094,
        "alt_km": 802.8743523592238,
        "timestamp": "2025-12-07T22:37:43.355049+00:00",
        "meta_object_name": "FENGYUN 1C DEB",
        "meta_object_id": "1999-025ZA",
        "meta_epoch": "2025-12-06T22:56:44.436768",
        "meta_mean_motion": 14.2574471,
        "meta_eccentricity": 0.00370809,
        "meta_inclination": 98.9274,
        "meta_ra_of_asc_node": 77.3397,
        "meta_arg_of_pericenter": 347.5598,
        "meta_mean_anomaly": 74.2162,
        "meta_ephemeris_type": 0,
        "meta_classification_type": "U",
        "meta_norad_cat_id": 30289,
        "meta_element_set_no": 999,
        "meta_rev_at_epoch": 96999,
        "meta_bstar": 0.0029380036,
        "meta_mean_motion_dot": 6.987e-05,
        "meta_mean_motion_ddot": 0,
        "tle_line1": "1 30289U 99025ZA  25340.95606987  .00006987  00000+0  29380-2 0  9994",
        "tle_line2": "2 30289  98.9274  77.3397 0037080 347.5598  74.2162 14.25744710969997"
      },
      "geometry": {
        "type": "Point",
        "coordinates": [
          21.296596738581094,
          79.39018790367712
        ]
      }
    }
  ]
}